{
  "type": "FeatureCollection",
  "features": [
    {
      "type": "Feature",
      "properties": {
        "name": "Nnewi Gully AOI - Search Bounding Box",
        "description": "Approximate 2km buffer around reported gully coordinates for initial imagery fetch and visual confirmation"
      },
      "geometry": {
        "type": "Polygon",
        "coordinates": [
          [
            [6.8819, 6.0020],
            [6.9181, 6.0020],
            [6.9181, 6.0380],
            [6.8819, 6.0380],
            [6.8819, 6.0020]
          ]
        ]
      }
    },
    {
      "type": "Feature",
      "properties": {
        "name": "Nnewi Gully - Approximate Center",
        "description": "Reference point from published coordinates, unconfirmed against imagery"
      },
      "geometry": {
        "type": "Point",
        "coordinates": [6.90, 6.02]
      }
    }
  ]
}