{
  "type": "FeatureCollection",
  "features": [
    {
      "type": "Feature",
      "properties": {
        "name": "Agulu-Nanka Gully Complex AOI - Search Bounding Box",
        "description": "~3km buffer around Agulu town, Anaocha LGA, Anambra State — site of Nigeria's most severe documented gully erosion complex"
      },
      "geometry": {
        "type": "Polygon",
        "coordinates": [
          [
            [7.037, 6.087],
            [7.097, 6.087],
            [7.097, 6.147],
            [7.037, 6.147],
            [7.037, 6.087]
          ]
        ]
      }
    },
    {
      "type": "Feature",
      "properties": {
        "name": "Agulu - Reference Center Point",
        "description": "Confirmed town coordinates from Wikipedia/geographic sources"
      },
      "geometry": {
        "type": "Point",
        "coordinates": [7.067, 6.117]
      }
    }
  ]
}